OBJECT_NAME,OBJECT_ID,EPOCH,MEAN_MOTION,ECCENTRICITY,INCLINATION,RA_OF_ASC_NODE,ARG_OF_PERICENTER,MEAN_ANOMALY,EPHEMERIS_TYPE,CLASSIFICATION_TYPE,NORAD_CAT_ID,ELEMENT_SET_NO,REV_AT_EPOCH,BSTAR,MEAN_MOTION_DOT,MEAN_MOTION_DDOT
GSAT-18,2016-060A,2026-06-09T11:58:41.579040,1.00271117,.0005671,0.0439,117.2294,313.6401,80.6689,0,U,41793,999,3545,0,-.6E-6,0
SKY MUSTER 2 (NBN1B),2016-060B,2026-06-08T22:37:37.437024,1.00272750,.00016019,0.0113,297.8542,135.5193,308.1720,0,U,41794,999,3543,0,-.227E-5,0
HIMAWARI-9,2016-064A,2026-06-09T08:52:24.125088,1.00272229,.0000842,0.0345,150.1248,333.7433,47.7569,0,U,41836,999,3513,0,-.257E-5,0
SHIJIAN-17 (SJ-17),2016-065A,2026-06-09T12:14:51.565056,0.99853585,.0001877,5.7324,72.6959,25.6287,230.6048,0,U,41838,999,3512,0,.31E-6,0
GOES 16,2016-071A,2026-06-09T11:07:39.752256,1.00270525,.000039,0.3199,85.6009,312.7885,281.6940,0,U,41866,999,3502,0,-.74E-6,0
TIANLIAN 1-04,2016-072A,2026-06-09T11:51:58.382208,1.00269862,.0041954,0.8490,82.9541,89.7157,80.0071,0,U,41869,999,3522,0,.48E-6,0
WGS F8 (USA 272),2016-075A,2026-06-08T20:56:19.470912,1.00270361,.00002351,0.0057,354.5862,346.9821,19.5808,0,U,41879,999,3473,0,-.186E-5,0
FENGYUN 4A,2016-077A,2026-06-09T07:04:55.629120,1.00273462,.0008327,2.3018,80.3704,151.5209,255.7921,0,U,41882,999,3485,0,-.34E-5,0
ECHOSTAR 19,2016-079A,2026-06-09T11:02:25.462752,1.00271092,.0001284,0.0179,0.8972,78.0064,247.4519,0,U,41893,999,3462,0,-.122E-5,0
JCSAT-110A (JCSAT-15),2016-082A,2026-06-09T12:09:03.086208,1.00270643,.000056,0.0178,348.5613,116.4084,85.2441,0,U,41903,999,3468,0,-.334E-5,0
STAR ONE D1,2016-082B,2026-06-09T07:48:18.487872,1.00272823,.0002175,0.0221,59.2114,26.3817,205.1779,0,U,41904,999,3469,0,-.194E-5,0
TJS-2,2017-001A,2026-06-09T10:13:52.364064,1.00272619,.0000618,0.8123,85.4353,27.8100,4.5728,0,U,41911,999,3464,0,.1E-6,0
SBIRS GEO-4 (USA 273),2017-004A,2026-06-09T06:35:37.199904,1.00272105,.0002132,2.2272,43.0469,30.2755,304.1415,0,U,41937,999,3451,0,.14E-5,0
HISPASAT 36W-1,2017-006A,2026-06-09T04:36:39.256992,1.00273041,.0001232,0.0181,229.2595,205.2457,216.2381,0,U,41942,999,3416,0,-.227E-5,0
TELKOM 3S,2017-007A,2026-06-09T10:28:35.950080,1.00266803,.0002104,0.0177,336.9318,108.9667,87.0635,0,U,41944,999,3406,0,0,0
INTELSAT 32E (IS-32E),2017-007B,2026-06-09T02:04:35.551776,1.00274840,.0000672,0.0023,348.0424,336.8096,280.6015,0,U,41945,999,3414,0,-.252E-5,0
ECHOSTAR 23,2017-014A,2026-06-09T00:50:20.785056,1.00276522,.00014908,0.0199,341.1115,88.1607,90.8350,0,U,42070,999,3384,0,0,0
WGS F9 (USA 275),2017-016A,2026-06-09T07:15:38.750976,1.00270310,.0000204,0.0087,282.7949,202.7966,229.0052,0,U,42075,999,3381,0,-.8E-6,0
SES-10,2017-017A,2026-06-09T09:35:50.178048,1.00269318,.0002817,0.0201,30.1121,55.8258,248.9028,0,U,42432,999,3367,0,-.256E-5,0
CHINASAT 16 (SJ-13),2017-018A,2026-06-09T08:43:47.452224,1.00275407,.0004189,0.0962,91.1721,138.2449,269.8268,0,U,42662,999,3367,0,-.335E-5,0
KOREASAT 7,2017-023A,2026-06-09T10:27:58.511232,1.00271264,.0000525,0.0195,352.0733,70.6815,107.9376,0,U,42691,999,3329,0,-.345E-5,0
SGDC,2017-023B,2026-06-08T11:52:00.218208,1.00271936,.0002797,0.0282,64.8181,22.5515,272.6721,0,U,42692,999,3331,0,-.234E-5,0
GSAT-9,2017-024A,2026-06-09T12:05:25.931904,1.00272347,.0002564,0.0077,315.9853,118.2404,102.3593,0,U,42695,999,3322,0,-.27E-5,0
INMARSAT 5-F4,2017-025A,2026-06-09T03:20:25.525248,1.00273429,.00000655,0.0177,351.8920,193.2614,178.9583,0,U,42698,999,3319,0,.92E-6,0
SES-15,2017-026A,2026-06-08T12:46:06.263616,1.00270105,.00005164,0.0197,332.0701,88.0806,259.1449,0,U,42709,999,734,0,.76E-6,0
QZS-2 (MICHIBIKI-2),2017-028A,2026-06-08T13:34:50.003328,1.00286250,.07604931,39.4403,243.2817,269.1681,89.5416,0,U,42738,999,754,0,-.15E-5,0
VIASAT-2,2017-029A,2026-06-09T02:44:22.598880,1.00271449,.00001717,0.0187,291.3466,135.2981,162.0599,0,U,42740,999,3312,0,-.249E-5,0
EUTELSAT 172B,2017-029B,2026-06-09T11:54:58.048416,1.00271986,.0000051,0.0417,140.2081,63.8474,44.5629,0,U,42741,999,3366,0,.12E-6,0
GSAT-19,2017-031A,2026-06-09T11:51:12.298176,1.00271642,.0006874,0.1124,90.5949,350.9443,41.9894,0,U,42747,999,3307,0,.142E-5,0
ECHOSTAR 21,2017-032A,2026-06-09T08:15:08.417088,1.00271210,.0002243,1.7716,355.1659,88.7214,307.8833,0,U,42749,999,3302,0,.8E-6,0
BULGARIASAT-1,2017-038A,2026-06-09T01:22:06.159072,1.00269313,.00034291,0.0199,281.2746,171.9526,186.6324,0,U,42801,999,3276,0,.27E-6,0
HELLAS-SAT 3,2017-040A,2026-06-08T23:50:02.722848,1.00273758,.00046263,0.0579,55.5659,354.8875,243.4447,0,U,42814,999,3272,0,.169E-5,0
